A/2019 G2,e,159.2050,208.1507,82.6175,596.4078,0.0000677,0.99615908,0.0000,12/09.8516/2019,2000,g 16.5,2.0
# From MPEC 2021-N06
A/2019 G4,h,09/16.1420/2018,138.3845,130.4642,287.8689,1.001994,5.856710,2000,13.0,2.0
# From MPC114607
P/2019 GG21 (PANSTARRS),e,6.0842,340.5713,208.5973,7.474649,0.0482301,0.47260001,42.0566,09/29.0/2021,2000,g 12.0,4.0
# From MPC115885
C/2019 H1 (NEOWISE),e,104.5506,269.2122,19.3429,240.1865,0.0002648,0.99231287,0.0000,04/27.8820/2019,2000,g 15.5,4.0
# From MPC118842
C/2019 J1 (Lemmon),e,24.5498,98.1012,167.7953,69.34595,0.0017068,0.96421984,1.5430,09/29.0/2021,2000,g 12.0,4.0
# From MPEC 2021-R75
C/2019 J2 (Palomar),e,105.1993,25.5198,98.7370,160.1161,0.0004865,0.98921947,0.0000,07/19.7815/2019,2000,g 13.0,4.0
# From MPC117071
C/2019 J3 (ATLAS),h,08/02.0746/2019,131.4033,270.5419,16.6112,1.000530,2.374620,2000,13.5,4.0
# From MPC117071
C/2019 JU6 (ATLAS),e,148.3176,21.7592,94.9431,352.5276,0.0001489,0.99419434,0.0000,06/01.0014/2019,2000,g 14.5,4.0
# From MPEC 2021-P47
C/2019 K1 (ATLAS),h,02/13.0049/2020,87.1227,73.3738,265.7139,1.000057,2.012571,2000,10.0,4.0
# From MPC119997
C/2019 K4 (Ye),e,105.2983,180.1505,139.7819,1349,0.0000199,0.99832378,0.0000,06/16.1423/2019,2000,g 12.5,4.0
# From MPEC 2021-P47
C/2019 K5 (Young),e,15.3173,177.1405,175.0185,161.3075,0.0004811,0.98737629,0.0000,06/22.9858/2019,2000,g 13.0,4.0
# From MPEC 2021-P47
C/2019 K6 (PANSTARRS),e,132.3825,42.9571,187.6400,1924,0.0000117,0.99795767,0.0000,05/20.2887/2020,2000,g 11.5,4.0
# From MPEC 2021-S45
C/2019 K7 (Smith),h,06/17.1565/2020,103.5422,307.9303,27.3378,1.000075,4.476081,2000,6.0,4.0
# From MPEC 2021-R75
C/2019 K8 (ATLAS),e,93.2101,291.0474,85.3969,2397,0.0000084,0.99866696,0.0000,07/21.6158/2019,2000,g 11.5,4.0
# From MPC118095
C/2019 L1 (PANSTARRS),e,9.9902,254.4202,49.9898,9.840682,0.0319276,0.70600928,24.8911,09/29.0/2021,2000,g 13.5,4.0
# From MPC115886
C/2019 L2 (NEOWISE),e,152.1949,12.5642,18.7677,24.87331,0.0079452,0.93478014,7.2406,09/29.0/2021,2000,g 16.0,4.0
# From MPEC 2021-S45
P/2019 LD2 (ATLAS),e,11.6083,179.5830,122.5991,5.256059,0.0817925,0.12946245,44.7125,09/29.0/2021,2000,g  8.5,4.0
# From MPEC 2021-S45
C/2019 L3 (ATLAS),h,01/09.6349/2022,48.3639,290.7891,171.6142,1.001394,3.554477,2000,4.5,4.0
# From MPC118095
C/2019 LB7 (Kleyna),e,164.2912,3.8991,336.4763,34.57516,0.0048479,0.92815583,4.4473,09/29.0/2021,2000,g 17.0,4.0
# From MPC118843
P/2019 M2 (ATLAS),e,12.2811,307.6002,332.5805,3.027347,0.1871159,0.64809719,155.1975,09/29.0/2021,2000,g 21.2,4.0
# From MPC118095
C/2019 M3 (ATLAS),h,01/02.1759/2019,99.4773,154.9057,87.8957,1.000487,2.418918,2000,12.2,4.0
# From MPEC 2021-R75
C/2019 N1 (ATLAS),e,82.4279,13.5760,193.4426,8367,0.0000013,0.99979625,0.0000,12/01.7820/2020,2000,g  7.5,4.0
# From MPEC 2021-N06
C/2019 NJ3 (Lemmon),h,10/22.4952/2020,99.4387,142.4540,246.8698,1.001324,4.362022,2000,9.0,4.0
# From MPEC 2021-S45
A/2019 O2,e,93.2909,48.2962,129.6674,57.35756,0.0022689,0.83118862,358.7387,09/29.0/2021,2000,g  9.5,2.0
# From MPEC 2021-S45
C/2019 O3 (Palomar),h,03/08.5298/2021,89.8168,300.3845,60.0783,1.003049,8.819629,2000,3.5,4.0
# From MPEC 2021-P47
A/2019 O4,e,115.0923,354.9103,61.8560,32.97498,0.0052051,0.88944159,3.1063,09/29.0/2021,2000,g 15.5,2.0
# From MPEC 2021-N06
C/2019 Q1 (Lemmon),h,07/20.2265/2020,155.7254,42.4695,56.1242,1.000512,4.998686,2000,8.5,4.0
# From MPC117072
A/2019 Q2,e,159.0256,188.0219,176.3039,57.16139,0.0022806,0.97798793,0.0000,07/22.1404/2019,2000,g 18.0,2.0
# From MPC117072
C/2019 Q3 (PANSTARRS),h,08/21.5266/2018,65.5250,151.3224,152.7249,1.003583,7.257009,2000,8.5,4.0
# From MPC117072
P/2019 S2 (PANSTARRS),e,10.4717,93.1354,216.9848,4.738336,0.0955576,0.20663531,90.7584,09/29.0/2021,2000,g 13.5,4.0
# From MPC118096
P/2019 S3 (PANSTARRS),e,8.6948,150.1598,212.9928,3.414989,0.1561781,0.47110340,119.4122,09/29.0/2021,2000,g 18.3,4.0
# From MPEC 2021-S45
C/2019 S4 (Lemmon),e,92.0327,63.1595,71.3662,231.2977,0.0002802,0.98511757,0.0000,04/07.9172/2020,2000,g 11.0,4.0
# From MPEC 2021-P47
A/2019 T1,e,120.8717,6.9491,91.0508,38.33339,0.0041528,0.88830091,1.0697,09/29.0/2021,2000,g 13.0,2.0
# From MPEC 2021-P47
C/2019 T2 (Lemmon),e,111.4890,155.6424,239.3944,1960,0.0000114,0.99864988,0.0000,04/22.2967/2021,2000,g  9.0,4.0
# From MPEC 2021-S45
C/2019 T3 (ATLAS),e,121.8618,139.5213,112.3063,3040,0.0000059,0.99804390,0.0000,03/03.0017/2021,2000,g  6.8,4.0
# From MPEC 2021-P47
C/2019 T4 (ATLAS),e,53.6236,199.9427,351.2132,1019,0.0000303,0.99583850,0.0000,06/09.2220/2022,2000,g  5.0,4.0
# From MPEC 2021-P47
P/2019 T5 (ATLAS),e,33.4392,247.6667,189.5700,7.997097,0.0435818,0.80909631,34.4229,09/29.0/2021,2000,g 15.0,4.0
# From MPEC 2021-P47
P/2019 T6 (PANSTARRS),e,18.6947,71.2827,328.9132,5.434709,0.0777928,0.62268558,53.7627,09/29.0/2021,2000,g 15.5,4.0
# From MPC118096
P/2019 U4 (PANSTARRS),e,11.6948,200.0081,180.9782,3.520448,0.1492132,0.47569267,110.6274,09/29.0/2021,2000,g 19.0,4.0
# From MPEC 2021-S45
C/2019 U5 (PANSTARRS),h,03/30.1191/2023,113.5190,2.6419,181.5501,1.000855,3.622970,2000,4.5,4.0
# From MPEC 2021-P47
C/2019 U6 (Lemmon),e,60.9989,235.7004,329.6531,392.3457,0.0001268,0.99766955,0.0000,06/18.7527/2020,2000,g 10.0,4.0
# From MPC119998
C/2019 V1 (Borisov),e,61.8657,83.1941,51.1821,1588,0.0000156,0.99804961,0.0000,07/16.4547/2020,2000,g 11.0,4.0
# From MPEC 2021-P47
P/2019 V2 (Groeller),e,11.8058,189.1798,335.9553,7.509800,0.0478918,0.33150566,16.5114,09/29.0/2021,2000,g 10.0,4.0
# From MPC119998
P/2019 W1 (PANSTARRS),e,23.4649,35.3884,18.6838,4.549818,0.1015578,0.26649152,88.8843,09/29.0/2021,2000,g 12.9,4.0
# From MPEC 2021-P47
P/2019 X1 (Pruyne),e,10.2460,43.6849,36.7982,6.172919,0.0642641,0.30294827,51.4583,09/29.0/2021,2000,g 10.4,4.0
# From MPC119999
C/2019 Y1 (ATLAS),e,73.2877,31.5261,57.9595,85.63762,0.0012437,0.99029362,0.0000,03/15.5950/2020,2000,g 13.7,4.0
# From MPEC 2020-L06
C/2019 Y4 (ATLAS),h,05/31.0504/2020,45.8136,120.9362,177.2703,1.001386,0.251454,2000,11.6,6.0
# From MPEC 2020-L06
C/2019 Y4-A (ATLAS),h,05/31.0504/2020,45.8136,120.9362,177.2703,1.001386,0.251454,2000,11.6,6.0
# From MPEC 2020-L06
C/2019 Y4-B (ATLAS),e,45.4481,120.6321,177.4034,1316,0.0000206,0.99980782,0.0000,05/31.0290/2020,2000,g 12.8,6.0
# From MPEC 2020-L06
C/2019 Y4-C (ATLAS),h,05/31.0081/2020,45.5958,120.6620,177.3037,1.002104,0.252508,2000,12.7,6.0
# From MPEC 2020-L06
C/2019 Y4-D (ATLAS),e,45.6375,121.0421,177.4420,67.98965,0.0017581,0.99629512,0.0000,05/31.1266/2020,2000,g 12.5,6.0
# From MPEC 2021-P47
C/2019 Y5 (PANSTARRS),e,82.8055,51.7765,303.5116,821.0727,0.0000419,0.99401398,0.0000,08/18.2408/2019,2000,g 11.0,4.0
# From MPEC 2020-L06
C/2020 A2 (Iwamoto),e,120.7312,286.3713,68.1897,1364,0.0000196,0.99928379,0.0000,01/08.4387/2020,2000,g 13.5,4.0
# From MPEC 2020-L06
C/2020 A3 (ATLAS),h,07/29.8531/2019,146.7738,120.3808,271.1718,1.025862,5.838917,2000,8.0,4.0
# From MPEC 2020-L06
C/2020 B3 (Rankin),e,20.7086,185.8379,325.0325,1183,0.0000242,0.99717495,0.0000,10/19.5820/2019,2000,g 13.0,4.0
# From MPEC 2021-R75
C/2020 F2 (ATLAS),h,07/16.2485/2022,163.5806,250.2597,48.3698,1.004132,8.816940,2000,4.5,4.0
# From MPEC 2021-O56
C/2020 F3 (NEOWISE),e,128.9559,61.0172,37.2854,339.2956,0.0001577,0.99913106,0.0000,07/03.6345/2020,2000,g  7.5,5.2
# From MPEC 2021-S45
C/2020 F5 (MASTER),h,03/24.5497/2021,51.7502,350.5962,311.1271,1.005432,4.326223,2000,6.5,3.2
# From MPEC 2020-L06
C/2020 F6 (PANSTARRS),e,174.5826,207.8932,344.6208,407.1861,0.0001200,0.99137761,0.0000,04/11.7312/2020,2000,g 14.5,2.8
# From MPEC 2021-P47
C/2020 F7 (Lemmon),e,93.9538,321.8871,227.9714,704.9725,0.0000527,0.99243642,0.0000,11/14.0206/2021,2000,g  7.0,4.0
# From MPEC 2020-KB7
C/2020 F8 (SWAN),e,110.7629,259.9857,68.1955,270.9584,0.0002210,0.99841317,0.0000,05/27.5869/2020,2000,g 10.0,4.0
# From MPEC 2020-L06
P/2020 G1 (Pimentel),e,18.4810,240.0954,207.6471,3.609825,0.1437060,0.85991155,80.5691,09/29.0/2021,2000,g 17.0,4.0
# From MPEC 2020-L06
C/2020 H2 (Pruyne),e,125.0251,277.6449,26.7076,191.4109,0.0003722,0.99564513,0.0000,04/27.6502/2020,2000,g 18.0,4.0
# From MPEC 2020-HM1
C/2020 H3 (Wierzchos),p,06/05.7162/2020,62.5292,30.4456,2.300288,270.6227,2000,13.5,4.0
# From MPEC 2020-L06
C/2020 H4 (Leonard),e,84.5135,307.7339,117.5898,48.08055,0.0029563,0.98072745,0.0000,08/29.5362/2020,2000,g 15.0,3.2
# From MPEC 2021-O56
C/2020 H5 (Robinson),e,70.2290,210.6319,326.4044,3458,0.0000048,0.99729763,0.0000,12/12.0017/2020,2000,g  5.0,4.0
# From MPEC 2021-R75
C/2020 H6 (ATLAS),h,10/01.0738/2021,79.9675,213.7066,20.3477,1.000712,4.702893,2000,8.0,3.2
# From MPEC 2020-KB7
C/2020 H7 (Lemmon),e,135.9235,323.5194,82.6780,1405,0.0000187,0.99685380,0.0000,06/02.9510/2020,2000,g 11.0,4.0
# From MPEC 2021-N06
C/2020 H8 (PANSTARRS),e,99.6493,68.4085,128.9404,593.8517,0.0000681,0.99212676,0.0000,06/04.4634/2020,2000,g 10.5,4.0
# From MPEC 2020-L06
A/2020 H9,e,137.8815,213.1375,312.9136,561.8809,0.0000740,0.99540922,0.0000,12/21.4414/2019,2000,g 18.0,2.0
# From MPEC 2021-S45
C/2020 J1 (SONEAR),h,04/18.6060/2021,142.2958,226.5824,341.7557,1.000410,3.355192,2000,8.5,3.2
# From MPEC 2021-S45
C/2020 K1 (PANSTARRS),e,89.6565,94.3631,213.9693,10382,0.0000009,0.99970390,0.0000,05/09.1063/2023,2000,g  5.5,4.0
# From MPEC 2021-N06
C/2020 K2 (PANSTARRS),h,08/05.6529/2020,91.0380,288.3505,67.3180,1.002973,8.878776,2000,10.8,4.0
# From MPEC 2020-KF9
C/2020 K3 (Leonard),p,06/01.0032/2020,129.0152,64.4924,1.583069,28.3546,2000,14.5,4.0
# From MPEC 2020-L06
C/2020 K4 (PANSTARRS),e,125.5678,264.1072,308.7932,23.88627,0.0084427,0.92658068,4.8486,09/29.0/2021,2000,g 16.5,4.0
# From MPEC 2021-R75
C/2020 K5 (PANSTARRS),h,06/05.5733/2021,67.1513,86.1645,249.5907,1.001510,1.535689,2000,11.0,4.0
# From MPEC 2021-R75
C/2020 K6 (Rankin),h,09/15.4670/2021,103.6433,291.5262,44.2969,1.003054,5.868344,2000,8.0,4.0
# From MPEC 2021-S45
C/2020 K7 (PANSTARRS),e,32.0426,286.0765,358.2210,102.5535,0.0009490,0.93771119,0.6654,09/29.0/2021,2000,g  8.0,4.0
# From MPEC 2021-P47
